{
    "week": 296,
    "satellites": [
        {
            "Name": "BEIDOU-3 M24 (C46)",
            "Line1": "1 44542U 19061A   24342.95710298  .00000082  00000+0  00000+0 0  9990",
            "Line2": "2 44542  54.4240 201.4916 0009094  16.1727 343.9388  1.86229257 35434",
            "SatelliteNumber": "44542",
            "Classification": "U",
            "LaunchYear": "19",
            "LaunchNumber": "061",
            "PieceOfLaunch": "A",
            "EpochYear": "24",
            "EpochDay": 342.95710298,
            "FirstDerivativeMeanMotion": 8.2e-07,
            "SecondDerivativeMeanMotion": "00000+0",
            "BSTAR": "00000+0",
            "SetNumber": "999",
            "Inclination": 54.424,
            "RAAN": 201.4916,
            "Eccentricity": 0.0009094,
            "ArgumentOfPerigee": 16.1727,
            "MeanAnomaly": 343.9388,
            "MeanMotion": 1.86229257,
            "RevolutionNumber": "3543"
        },
        {
            "Name": "BEIDOU-3 M23 (C45)",
            "Line1": "1 44543U 19061B   24343.42390559  .00000085  00000+0  00000+0 0  9991",
            "Line2": "2 44543  54.4224 201.4446 0005709  14.4451 211.2418  1.86229359 35444",
            "SatelliteNumber": "44543",
            "Classification": "U",
            "LaunchYear": "19",
            "LaunchNumber": "061",
            "PieceOfLaunch": "B",
            "EpochYear": "24",
            "EpochDay": 343.42390559,
            "FirstDerivativeMeanMotion": 8.5e-07,
            "SecondDerivativeMeanMotion": "00000+0",
            "BSTAR": "00000+0",
            "SetNumber": "999",
            "Inclination": 54.4224,
            "RAAN": 201.4446,
            "Eccentricity": 0.0005709,
            "ArgumentOfPerigee": 14.4451,
            "MeanAnomaly": 211.2418,
            "MeanMotion": 1.86229359,
            "RevolutionNumber": "3544"
        },
        {
            "Name": "BEIDOU-3 IGSO-3 (C40)",
            "Line1": "1 44709U 19073A   24343.26028564 -.00000200  00000+0  00000+0 0  9994",
            "Line2": "2 44709  55.7565 286.8783 0039940 190.1477 169.7517  1.00249050 18887",
            "SatelliteNumber": "44709",
            "Classification": "U",
            "LaunchYear": "19",
            "LaunchNumber": "073",
            "PieceOfLaunch": "A",
            "EpochYear": "24",
            "EpochDay": 343.26028564,
            "FirstDerivativeMeanMotion": -2e-06,
            "SecondDerivativeMeanMotion": "00000+0",
            "BSTAR": "00000+0",
            "SetNumber": "999",
            "Inclination": 55.7565,
            "RAAN": 286.8783,
            "Eccentricity": 0.003994,
            "ArgumentOfPerigee": 190.1477,
            "MeanAnomaly": 169.7517,
            "MeanMotion": 1.0024905,
            "RevolutionNumber": "1888"
        },
        {
            "Name": "BEIDOU-3 M22 (C44)",
            "Line1": "1 44793U 19078A   24343.33821365 -.00000055  00000+0  00000+0 0  9998",
            "Line2": "2 44793  54.4280 319.3054 0005740  11.6811 348.3343  1.86231859 34302",
            "SatelliteNumber": "44793",
            "Classification": "U",
            "LaunchYear": "19",
            "LaunchNumber": "078",
            "PieceOfLaunch": "A",
            "EpochYear": "24",
            "EpochDay": 343.33821365,
            "FirstDerivativeMeanMotion": -5.5e-07,
            "SecondDerivativeMeanMotion": "00000+0",
            "BSTAR": "00000+0",
            "SetNumber": "999",
            "Inclination": 54.428,
            "RAAN": 319.3054,
            "Eccentricity": 0.000574,
            "ArgumentOfPerigee": 11.6811,
            "MeanAnomaly": 348.3343,
            "MeanMotion": 1.86231859,
            "RevolutionNumber": "3430"
        },
        {
            "Name": "BEIDOU-3 M21 (C43)",
            "Line1": "1 44794U 19078B   24342.93059834 -.00000052  00000+0  00000+0 0  9995",
            "Line2": "2 44794  54.4018 319.2918 0003902 356.6163   3.3835  1.86232398 34291",
            "SatelliteNumber": "44794",
            "Classification": "U",
            "LaunchYear": "19",
            "LaunchNumber": "078",
            "PieceOfLaunch": "B",
            "EpochYear": "24",
            "EpochDay": 342.93059834,
            "FirstDerivativeMeanMotion": -5.2e-07,
            "SecondDerivativeMeanMotion": "00000+0",
            "BSTAR": "00000+0",
            "SetNumber": "999",
            "Inclination": 54.4018,
            "RAAN": 319.2918,
            "Eccentricity": 0.0003902,
            "ArgumentOfPerigee": 356.6163,
            "MeanAnomaly": 3.3835,
            "MeanMotion": 1.86232398,
            "RevolutionNumber": "3429"
        },
        {
            "Name": "BEIDOU-3 M19 (C41)",
            "Line1": "1 44864U 19090A   24342.81655130 -.00000007  00000+0  00000+0 0  9995",
            "Line2": "2 44864  56.0712  81.2579 0017314 278.7715 196.7631  1.86231245 33870",
            "SatelliteNumber": "44864",
            "Classification": "U",
            "LaunchYear": "19",
            "LaunchNumber": "090",
            "PieceOfLaunch": "A",
            "EpochYear": "24",
            "EpochDay": 342.8165513,
            "FirstDerivativeMeanMotion": -7e-08,
            "SecondDerivativeMeanMotion": "00000+0",
            "BSTAR": "00000+0",
            "SetNumber": "999",
            "Inclination": 56.0712,
            "RAAN": 81.2579,
            "Eccentricity": 0.0017314,
            "ArgumentOfPerigee": 278.7715,
            "MeanAnomaly": 196.7631,
            "MeanMotion": 1.86231245,
            "RevolutionNumber": "3387"
        },
        {
            "Name": "BEIDOU-3 M20 (C42)",
            "Line1": "1 44865U 19090B   24343.67018081 -.00000015  00000+0  00000+0 0  9998",
            "Line2": "2 44865  56.0736  81.2630 0014615 291.7084 125.8352  1.86231206 33869",
            "SatelliteNumber": "44865",
            "Classification": "U",
            "LaunchYear": "19",
            "LaunchNumber": "090",
            "PieceOfLaunch": "B",
            "EpochYear": "24",
            "EpochDay": 343.67018081,
            "FirstDerivativeMeanMotion": -1.5e-07,
            "SecondDerivativeMeanMotion": "00000+0",
            "BSTAR": "00000+0",
            "SetNumber": "999",
            "Inclination": 56.0736,
            "RAAN": 81.263,
            "Eccentricity": 0.0014615,
            "ArgumentOfPerigee": 291.7084,
            "MeanAnomaly": 125.8352,
            "MeanMotion": 1.86231206,
            "RevolutionNumber": "3386"
        },
        {
            "Name": "BEIDOU-3 G2 (C60)",
            "Line1": "1 45344U 20017A   24343.23313236 -.00000126  00000+0  00000+0 0  9997",
            "Line2": "2 45344   2.5577  35.6029 0004358 221.9688 343.8874  1.00271371 17680",
            "SatelliteNumber": "45344",
            "Classification": "U",
            "LaunchYear": "20",
            "LaunchNumber": "017",
            "PieceOfLaunch": "A",
            "EpochYear": "24",
            "EpochDay": 343.23313236,
            "FirstDerivativeMeanMotion": -1.26e-06,
            "SecondDerivativeMeanMotion": "00000+0",
            "BSTAR": "00000+0",
            "SetNumber": "999",
            "Inclination": 2.5577,
            "RAAN": 35.6029,
            "Eccentricity": 0.0004358,
            "ArgumentOfPerigee": 221.9688,
            "MeanAnomaly": 343.8874,
            "MeanMotion": 1.00271371,
            "RevolutionNumber": "1768"
        },
        {
            "Name": "BEIDOU-3 G3 (C61)",
            "Line1": "1 45807U 20040A   24343.61394321 -.00000338  00000+0  00000+0 0  9998",
            "Line2": "2 45807   1.1232  57.2124 0003728 297.8530  54.3300  1.00266113 16495",
            "SatelliteNumber": "45807",
            "Classification": "U",
            "LaunchYear": "20",
            "LaunchNumber": "040",
            "PieceOfLaunch": "A",
            "EpochYear": "24",
            "EpochDay": 343.61394321,
            "FirstDerivativeMeanMotion": -3.38e-06,
            "SecondDerivativeMeanMotion": "00000+0",
            "BSTAR": "00000+0",
            "SetNumber": "999",
            "Inclination": 1.1232,
            "RAAN": 57.2124,
            "Eccentricity": 0.0003728,
            "ArgumentOfPerigee": 297.853,
            "MeanAnomaly": 54.33,
            "MeanMotion": 1.00266113,
            "RevolutionNumber": "1649"
        },
        {
            "Name": "BEIDOU-3 G4 (C62)",
            "Line1": "1 56564U 23066A   24343.66648256 -.00000096  00000+0  00000+0 0  9996",
            "Line2": "2 56564   1.6908 289.1303 0004156 261.2019 287.5556  1.00270297  5837",
            "SatelliteNumber": "56564",
            "Classification": "U",
            "LaunchYear": "23",
            "LaunchNumber": "066",
            "PieceOfLaunch": "A",
            "EpochYear": "24",
            "EpochDay": 343.66648256,
            "FirstDerivativeMeanMotion": -9.6e-07,
            "SecondDerivativeMeanMotion": "00000+0",
            "BSTAR": "00000+0",
            "SetNumber": "999",
            "Inclination": 1.6908,
            "RAAN": 289.1303,
            "Eccentricity": 0.0004156,
            "ArgumentOfPerigee": 261.2019,
            "MeanAnomaly": 287.5556,
            "MeanMotion": 1.00270297,
            "RevolutionNumber": "583"
        }
    ]
}